[{"OBJECT_NAME":"STARLINK-6117","OBJECT_ID":"2023-046AQ","EPOCH":"2026-03-09T22:00:01.999584","MEAN_MOTION":15.12014927,"ECCENTRICITY":0.00011707,"INCLINATION":43.0011,"RA_OF_ASC_NODE":144.5633,"ARG_OF_PERICENTER":295.5966,"MEAN_ANOMALY":227.7394,"EPHEMERIS_TYPE":0,"CLASSIFICATION_TYPE":"U","NORAD_CAT_ID":56130,"ELEMENT_SET_NO":999,"REV_AT_EPOCH":578,"BSTAR":0.00047677406,"MEAN_MOTION_DOT":8.12e-5,"MEAN_MOTION_DDOT":0},{"OBJECT_NAME":"STARLING 3","OBJECT_ID":"2023-100D","EPOCH":"2026-03-09T22:41:57.048288","MEAN_MOTION":15.11145977,"ECCENTRICITY":0.00066311,"INCLINATION":99.5096,"RA_OF_ASC_NODE":65.6477,"ARG_OF_PERICENTER":76.1122,"MEAN_ANOMALY":284.0839,"EPHEMERIS_TYPE":0,"CLASSIFICATION_TYPE":"U","NORAD_CAT_ID":57389,"ELEMENT_SET_NO":999,"REV_AT_EPOCH":14507,"BSTAR":0.00051487914,"MEAN_MOTION_DOT":8.551e-5,"MEAN_MOTION_DDOT":0}]
